{"type": "FeatureCollection", "features": [{"type": "Feature", "properties": {"norad_id": 36828, "name": "BEIDOU-2 IGSO-1 (C06)", "group": "beidou", "lat": 51.00010861393557, "lon": -78.15065036901969, "alt_km": 35849.32108981763, "timestamp": "2025-12-09T05:43:20.990608+00:00", "meta": {"OBJECT_NAME": "BEIDOU-2 IGSO-1 (C06)", "OBJECT_ID": "2010-036A", "EPOCH": "2025-12-08T10:41:23.989056", "MEAN_MOTION": 1.00277305, "ECCENTRICITY": 0.0051235, "INCLINATION": 54.2853, "RA_OF_ASC_NODE": 164.6865, "ARG_OF_PERICENTER": 215.8868, "MEAN_ANOMALY": 325.0672, "EPHEMERIS_TYPE": 0, "CLASSIFICATION_TYPE": "U", "NORAD_CAT_ID": 36828, "ELEMENT_SET_NO": 999, "REV_AT_EPOCH": 5618, "BSTAR": 0, "MEAN_MOTION_DOT": -6.9e-07, "MEAN_MOTION_DDOT": 0}, "tle": {"line1": "1 36828U 10036A   25342.44541654 -.00000069  00000+0  00000+0 0  9990", "line2": "2 36828  54.2853 164.6865 0051235 215.8868 325.0672  1.00277305 56186"}}, "geometry": {"type": "Point", "coordinates": [-78.15065036901969, 51.00010861393557]}}, {"type": "Feature", "properties": {"norad_id": 37210, "name": "BEIDOU-2 G4 (C04)", "group": "beidou", "lat": -3.0658664199035073, "lon": -35.76511978840616, "alt_km": 35766.79573090323, "timestamp": "2025-12-09T05:43:20.990632+00:00", "meta": {"OBJECT_NAME": "BEIDOU-2 G4 (C04)", "OBJECT_ID": "2010-057A", "EPOCH": "2025-12-08T19:30:04.457376", "MEAN_MOTION": 1.0027123, "ECCENTRICITY": 0.001099, "INCLINATION": 3.1744, "RA_OF_ASC_NODE": 69.9383, "ARG_OF_PERICENTER": 189.4969, "MEAN_ANOMALY": 270.9695, "EPHEMERIS_TYPE": 0, "CLASSIFICATION_TYPE": "U", "NORAD_CAT_ID": 37210, "ELEMENT_SET_NO": 999, "REV_AT_EPOCH": 5538, "BSTAR": 0, "MEAN_MOTION_DOT": -1.1e-06, "MEAN_MOTION_DDOT": 0}, "tle": {"line1": "1 37210U 10057A   25342.81255159 -.00000110  00000+0  00000+0 0  9999", "line2": "2 37210   3.1744  69.9383 0010990 189.4969 270.9695  1.00271230 55382"}}, "geometry": {"type": "Point", "coordinates": [-35.76511978840616, -3.0658664199035073]}}, {"type": "Feature", "properties": {"norad_id": 37256, "name": "BEIDOU-2 IGSO-2 (C07)", "group": "beidou", "lat": -1.725858751240275, "lon": -87.38720857430864, "alt_km": 35944.91230215724, "timestamp": "2025-12-09T05:43:20.990647+00:00", "meta": {"OBJECT_NAME": "BEIDOU-2 IGSO-2 (C07)", "OBJECT_ID": "2010-068A", "EPOCH": "2025-12-03T17:22:36.026976", "MEAN_MOTION": 1.0028872, "ECCENTRICITY": 0.0049245, "INCLINATION": 47.9042, "RA_OF_ASC_NODE": 274.2614, "ARG_OF_PERICENTER": 216.1411, "MEAN_ANOMALY": 310.24, "EPHEMERIS_TYPE": 0, "CLASSIFICATION_TYPE": "U", "NORAD_CAT_ID": 37256, "ELEMENT_SET_NO": 999, "REV_AT_EPOCH": 5483, "BSTAR": 0, "MEAN_MOTION_DOT": -2.25e-06, "MEAN_MOTION_DDOT": 0}, "tle": {"line1": "1 37256U 10068A   25337.72402809 -.00000225  00000+0  00000+0 0  9998", "line2": "2 37256  47.9042 274.2614 0049245 216.1411 310.2400  1.00288720 54835"}}, "geometry": {"type": "Point", "coordinates": [-87.38720857430864, -1.725858751240275]}}, {"type": "Feature", "properties": {"norad_id": 37384, "name": "BEIDOU-2 IGSO-3 (C08)", "group": "beidou", "lat": -42.6102471009639, "lon": -108.94434853019281, "alt_km": 35682.095476015806, "timestamp": "2025-12-09T05:43:20.990662+00:00", "meta": {"OBJECT_NAME": "BEIDOU-2 IGSO-3 (C08)", "OBJECT_ID": "2011-013A", "EPOCH": "2025-12-07T14:00:04.361184", "MEAN_MOTION": 1.00271435, "ECCENTRICITY": 0.0035334, "INCLINATION": 62.1366, "RA_OF_ASC_NODE": 41.9657, "ARG_OF_PERICENTER": 187.0632, "MEAN_ANOMALY": 165.2408, "EPHEMERIS_TYPE": 0, "CLASSIFICATION_TYPE": "U", "NORAD_CAT_ID": 37384, "ELEMENT_SET_NO": 999, "REV_AT_EPOCH": 5373, "BSTAR": 0, "MEAN_MOTION_DOT": -1.91e-06, "MEAN_MOTION_DDOT": 0}, "tle": {"line1": "1 37384U 11013A   25341.58338381 -.00000191  00000+0  00000+0 0  9995", "line2": "2 37384  62.1366  41.9657 0035334 187.0632 165.2408  1.00271435 53735"}}, "geometry": {"type": "Point", "coordinates": [-108.94434853019281, -42.6102471009639]}}, {"type": "Feature", "properties": {"norad_id": 37763, "name": "BEIDOU-2 IGSO-4 (C09)", "group": "beidou", "lat": 54.52679730739679, "lon": -102.82346349502245, "alt_km": 36257.83188416802, "timestamp": "2025-12-09T05:43:20.990675+00:00", "meta": {"OBJECT_NAME": "BEIDOU-2 IGSO-4 (C09)", "OBJECT_ID": "2011-038A", "EPOCH": "2025-12-01T12:32:09.960000", "MEAN_MOTION": 1.00284084, "ECCENTRICITY": 0.0148808, "INCLINATION": 54.5806, "RA_OF_ASC_NODE": 167.4476, "ARG_OF_PERICENTER": 230.2017, "MEAN_ANOMALY": 315.0405, "EPHEMERIS_TYPE": 0, "CLASSIFICATION_TYPE": "U", "NORAD_CAT_ID": 37763, "ELEMENT_SET_NO": 999, "REV_AT_EPOCH": 5266, "BSTAR": 0, "MEAN_MOTION_DOT": 1.01e-06, "MEAN_MOTION_DDOT": 0}, "tle": {"line1": "1 37763U 11038A   25335.52233750  .00000101  00000+0  00000+0 0  9994", "line2": "2 37763  54.5806 167.4476 0148808 230.2017 315.0405  1.00284084 52669"}}, "geometry": {"type": "Point", "coordinates": [-102.82346349502245, 54.52679730739679]}}, {"type": "Feature", "properties": {"norad_id": 37948, "name": "BEIDOU-2 IGSO-5 (C10)", "group": "beidou", "lat": -11.831795335888575, "lon": -96.96880695584848, "alt_km": 36024.73570442723, "timestamp": "2025-12-09T05:43:20.990689+00:00", "meta": {"OBJECT_NAME": "BEIDOU-2 IGSO-5 (C10)", "OBJECT_ID": "2011-073A", "EPOCH": "2025-12-07T19:12:14.882400", "MEAN_MOTION": 1.00291658, "ECCENTRICITY": 0.01104068, "INCLINATION": 48.0298, "RA_OF_ASC_NODE": 273.9181, "ARG_OF_PERICENTER": 222.1784, "MEAN_ANOMALY": 321.4594, "EPHEMERIS_TYPE": 0, "CLASSIFICATION_TYPE": "U", "NORAD_CAT_ID": 37948, "ELEMENT_SET_NO": 999, "REV_AT_EPOCH": 5121, "BSTAR": 0, "MEAN_MOTION_DOT": -1.91e-06, "MEAN_MOTION_DDOT": 0}, "tle": {"line1": "1 37948U 11073A   25341.80017225 -.00000191  00000+0  00000+0 0  9993", "line2": "2 37948  48.0298 273.9181 0110406 222.1784 321.4594  1.00291658 51212"}}, "geometry": {"type": "Point", "coordinates": [-96.96880695584848, -11.831795335888575]}}, {"type": "Feature", "properties": {"norad_id": 38091, "name": "BEIDOU-2 G5 (C05)", "group": "beidou", "lat": 1.4396332105628236, "lon": -137.28811272379156, "alt_km": 35770.4972233554, "timestamp": "2025-12-09T05:43:20.990703+00:00", "meta": {"OBJECT_NAME": "BEIDOU-2 G5 (C05)", "OBJECT_ID": "2012-008A", "EPOCH": "2025-12-08T20:43:57.379584", "MEAN_MOTION": 1.00274009, "ECCENTRICITY": 0.0012521, "INCLINATION": 3.0991, "RA_OF_ASC_NODE": 70.7118, "ARG_OF_PERICENTER": 226.0714, "MEAN_ANOMALY": 150.8104, "EPHEMERIS_TYPE": 0, "CLASSIFICATION_TYPE": "U", "NORAD_CAT_ID": 38091, "ELEMENT_SET_NO": 999, "REV_AT_EPOCH": 5046, "BSTAR": 0, "MEAN_MOTION_DOT": 5.8e-07, "MEAN_MOTION_DDOT": 0}, "tle": {"line1": "1 38091U 12008A   25342.86385856  .00000058  00000+0  00000+0 0  9998", "line2": "2 38091   3.0991  70.7118 0012521 226.0714 150.8104  1.00274009 50469"}}, "geometry": {"type": "Point", "coordinates": [-137.28811272379156, 1.4396332105628236]}}, {"type": "Feature", "properties": {"norad_id": 38250, "name": "BEIDOU-2 M3 (C11)", "group": "beidou", "lat": 55.90711548162364, "lon": 39.327198009354454, "alt_km": 21589.542230360985, "timestamp": "2025-12-09T05:43:20.990714+00:00", "meta": {"OBJECT_NAME": "BEIDOU-2 M3 (C11)", "OBJECT_ID": "2012-018A", "EPOCH": "2025-12-08T13:38:39.271776", "MEAN_MOTION": 1.86229758, "ECCENTRICITY": 0.0024371, "INCLINATION": 55.9237, "RA_OF_ASC_NODE": 311.2977, "ARG_OF_PERICENTER": 274.148, "MEAN_ANOMALY": 85.5607, "EPHEMERIS_TYPE": 0, "CLASSIFICATION_TYPE": "U", "NORAD_CAT_ID": 38250, "ELEMENT_SET_NO": 999, "REV_AT_EPOCH": 9239, "BSTAR": 0, "MEAN_MOTION_DOT": -7.3e-07, "MEAN_MOTION_DDOT": 0}, "tle": {"line1": "1 38250U 12018A   25342.56851009 -.00000073  00000+0  00000+0 0  9999", "line2": "2 38250  55.9237 311.2977 0024371 274.1480  85.5607  1.86229758 92396"}}, "geometry": {"type": "Point", "coordinates": [39.327198009354454, 55.90711548162364]}}, {"type": "Feature", "properties": {"norad_id": 38251, "name": "BEIDOU-2 M4 (C12)", "group": "beidou", "lat": 36.18952776898915, "lon": 100.70073138029595, "alt_km": 21558.48322970182, "timestamp": "2025-12-09T05:43:20.990726+00:00", "meta": {"OBJECT_NAME": "BEIDOU-2 M4 (C12)", "OBJECT_ID": "2012-018B", "EPOCH": "2025-12-08T12:00:48.229344", "MEAN_MOTION": 1.86229448, "ECCENTRICITY": 0.0015516, "INCLINATION": 55.8253, "RA_OF_ASC_NODE": 310.5294, "ARG_OF_PERICENTER": 277.5058, "MEAN_ANOMALY": 82.3051, "EPHEMERIS_TYPE": 0, "CLASSIFICATION_TYPE": "U", "NORAD_CAT_ID": 38251, "ELEMENT_SET_NO": 999, "REV_AT_EPOCH": 9239, "BSTAR": 0, "MEAN_MOTION_DOT": -7.3e-07, "MEAN_MOTION_DDOT": 0}, "tle": {"line1": "1 38251U 12018B   25342.50055821 -.00000073  00000+0  00000+0 0  9992", "line2": "2 38251  55.8253 310.5294 0015516 277.5058  82.3051  1.86229448 92391"}}, "geometry": {"type": "Point", "coordinates": [100.70073138029595, 36.18952776898915]}}, {"type": "Feature", "properties": {"norad_id": 38775, "name": "BEIDOU-2 M6 (C14)", "group": "beidou", "lat": -25.843595904751968, "lon": 50.41817735720207, "alt_km": 21502.039181929442, "timestamp": "2025-12-09T05:43:20.990738+00:00", "meta": {"OBJECT_NAME": "BEIDOU-2 M6 (C14)", "OBJECT_ID": "2012-050B", "EPOCH": "2025-12-08T05:04:33.479040", "MEAN_MOTION": 1.86230723, "ECCENTRICITY": 0.00110356, "INCLINATION": 56.3747, "RA_OF_ASC_NODE": 69.2178, "ARG_OF_PERICENTER": 345.3738, "MEAN_ANOMALY": 14.6151, "EPHEMERIS_TYPE": 0, "CLASSIFICATION_TYPE": "U", "NORAD_CAT_ID": 38775, "ELEMENT_SET_NO": 999, "REV_AT_EPOCH": 8975, "BSTAR": 0, "MEAN_MOTION_DOT": -4.4e-07, "MEAN_MOTION_DDOT": 0}, "tle": {"line1": "1 38775U 12050B   25342.21149860 -.00000044  00000+0  00000+0 0  9992", "line2": "2 38775  56.3747  69.2178 0011035 345.3738  14.6151  1.86230723 89759"}}, "geometry": {"type": "Point", "coordinates": [50.41817735720207, -25.843595904751968]}}]}